CIC_OEM_VERS = 2.0
CREATION_DATE = 2024-12-07T14:28:14.373758
ORIGINATOR = ISAE-SUPAERO


META_START
OBJECT_NAME = Sat
OBJECT_ID = Sat
CENTER_NAME = Earth
REF_FRAME = EME2000
TIME_SYSTEM = UTC
START_TIME = 2024-12-07T00:41:44.160
USEABLE_START_TIME = 2024-12-07T00:41:44.160
USEABLE_STOP_TIME = 2024-12-07T23:59:44.160
STOP_TIME = 2024-12-07T23:59:44.160
INTERPOLATION = lagrange
INTERPOLATION_DEGREE = 5
META_STOP



60651 2504.16 -2677.5007 -6358.0598 14.703747 -0.91588245 0.41375416000000004 7.530809100000001
60651 2684.16 -2788.7106000000003 -6159.2378 1361.0499 -0.3156605 1.7882645000000001 7.3792896
60651 2864.16 -2790.3757 -5718.465099999999 2653.7759 0.29725601 3.0931872 6.9369533
60651 3044.16 -2682.3909 -5052.9732 3841.9219 0.8986469899999999 4.2768881 6.221118000000001
60651 3224.16 -2468.9808 -4188.8769 4878.642400000001 1.464788 5.2926247 5.259996699999999
60651 3404.16 -2158.5237 -3160.1238 5723.0599 1.9734017 6.1003844 4.0914526
60651 3584.16 -1763.2127 -2007.1415 6341.8648 2.4045124 6.6684104 2.7614253
60651 3764.16 -1298.5717 -775.24027 6710.6046 2.7412046 6.9743676 1.322052
60651 3944.16 -782.84736 487.15375 6814.6167000000005 2.9702307 7.0060618 -0.17036531
60651 4124.16 -236.30594000000002 1730.3621 6649.5960000000005 3.0824706 6.7618298999999995 -1.6573918
60651 4304.16 319.55001000000004 2905.3873 6221.8032 3.0732755000000003 6.250644 -3.0805957
60651 4484.16 862.78903 3965.7475 5547.8111 2.9427414 5.4920826 -4.3835596
60651 4664.16 1371.9343999999999 4869.4263 4654.058 2.6956857 4.5153874 -5.5144415
60651 4844.16 1826.8079 5580.485900000001 3575.6976 2.3416734999999997 3.35893 -6.427715500000001
60651 5024.16 2209.348 6070.5953 2355.3772999999997 1.8946484000000001 2.068572 -7.0864043
60651 5204.16 2504.3636 6320.2259 1041.4950000000001 1.3724387 0.69591067 -7.4637652
60651 5384.16 2700.1695 6319.491599999999 -313.76174 0.7960324799999999 -0.70390117 -7.5445994
60651 5564.16 2789.0747 6068.571 -1656.5706000000002 0.18865454 -2.0746029 -7.3260085
60651 5744.16 2767.6911 5577.679400000001 -2933.7046 -0.42528799 -3.3613505 -6.817477
60651 5924.16 2637.0489 4866.5971 -4094.7176000000004 -1.021296 -4.513114300000001 -6.040304900000001
60651 6104.16 2402.5174 3963.7803 -5093.9936 -1.5758404000000001 -5.4848163 -5.0264262
60651 6284.16 2073.5374 2905.1292000000003 -5892.4798 -2.0672904 -6.2390197 -3.8168555000000004
60651 6464.16 1663.2192 1732.5116 -6459.1994 -2.4767195 -6.7471807 -2.4597667000000003
60651 6644.16 1187.7815 492.05426 -6772.3395 -2.7885539 -6.9905075 -1.0085153
60651 6824.16 665.90822 -767.6445600000001 -6820.0005 -2.9910519 -6.9604 0.48043982
60651 7004.16 118.02644000000001 -1997.3655 -6600.5722000000005 -3.0766334000000004 -6.658556300000001 1.9495698000000001
60651 7184.16 -434.46363 -3149.1109 -6122.7483 -3.0420934 -6.0968031 3.3422358
60651 7364.16 -969.98802 -4177.8953 -5405.1947 -2.8887169 -5.296699800000001 4.6045936
60651 7544.16 -1467.6101 -5043.4452 -4475.8746 -2.6222908000000005 -4.2889064 5.6874994
60651 7724.16 -1907.8311 -5711.755 -3371.0315 -2.2529679000000002 -3.1122203 6.5483991
60651 7904.16 -2273.3507999999997 -6156.438099999999 -2133.8436 -1.7949585 -1.8122477 7.1530627
60651 8084.16 -2549.7569 -6359.807 -812.78804 -1.2660558000000002 -0.43976350000000003 7.4770826
60651 8264.16 -2726.1162000000004 -6313.6395 540.23965 -0.68698315 0.95123417 7.507064300000001
60651 8444.16 -2795.4267000000004 -6019.5523 1871.9896 -0.080550407 2.3057799 7.2413665
60651 8624.16 -2754.9092 -5488.9693 3129.9826000000003 0.5292942399999999 3.5702624999999997 6.6902234
60651 8804.16 -2606.1229 -4742.6731 4264.6224 1.1184653 4.6946752 5.8752957
60651 8984.16 -2354.8997999999997 -3809.9674 5231.1722 1.6637311 5.6346531 4.8287134
60651 9164.16 -2011.1063000000001 -2727.5007 5991.5187000000005 2.1436444000000003 6.3532156 3.5916854
60651 9344.16 -1588.2458000000001 -1537.8075000000001 6515.6557 2.5393697000000004 6.822139900000001 2.2127701
60651 9524.16 -1102.9242 -287.63932 6782.834900000001 2.8353743 7.0229242 0.7459437000000001
60651 9704.16 -574.20445 973.84396 6782.3607 3.0199706 6.947392300000001 -0.75141254
60651 9884.16 -22.875674 2196.9656 6514.0206 3.0857341000000003 6.5980075 -2.2205825
60651 10064.16 529.3605600000001 3333.4706 5988.0715 3.0298292 5.9878809 -3.6037514
60651 10244.16 1060.6715 4338.3509 5225.128900000001 2.8541202 5.1403692 -4.8458727
60651 10424.16 1550.0446000000002 5171.727900000001 4255.0469 2.5653172 4.0885326 -5.897295199999999
60651 10604.16 1978.066 5800.4348 3116.1123 2.1746723 2.8737983 -6.7156146
60651 10784.16 2327.7376 6199.4128 1853.4253999999999 1.6976686 1.5445258 -7.2676437
60651 10964.16 2585.1852999999996 6352.7823 517.10437 1.1534046 0.15398414 -7.5310087
60651 11144.16 2740.2376 6254.5238 -839.76404 0.5637753 -1.2419364000000002 -7.495227
60651 11324.16 2786.8448 5908.7302 -2163.319 -0.047488482 -2.5871867 -7.1622123
60651 11504.16 2723.3147999999997 5329.408 -3401.1527 -0.6558737 -3.8280666 -6.5461401
60651 11684.16 2552.3589 4539.8464 -4504.459400000001 -1.2371808000000002 -4.9155709 -5.6726366
60651 11864.16 2280.9299 3571.5606000000002 -5429.9817 -1.768569 -5.8073997 -4.5773978
60651 12044.16 1919.9108999999999 2462.9843 -6141.6507 -2.2294151 -6.4694289 -3.3044632000000003
60651 12224.16 1483.6388000000002 1257.8625 -6611.943 -2.6020596 -6.8768221 -1.9042624000000001
60651 12404.16 989.3160600000001 3.5189456 -6822.8327 -2.8723915000000004 -7.0147116 -0.43159780000000003
60651 12584.16 456.33366 -1250.9672 -6766.3953 -3.0302664 -6.8784979 1.0564358
60651 12764.16 -94.46914100000001 -2456.6132000000002 -6445.0405 -3.0697750999999998 -6.4738302999999995 2.5024374
60651 12944.16 -641.58514 -3566.3595 -5871.393599999999 -2.9894293 -5.8163706 3.8506191
60651 13124.16 -1163.6447 -4536.8334 -5067.8319 -2.7922480000000003 -4.9313173 5.0487367999999995
60651 13304.16 -1640.2241000000001 -5330.0010999999995 -4065.6739 -2.4857008 -3.8526399000000002 6.049999700000001
60651 13484.16 -2052.631 -5914.653 -2904.0305 -2.0815097000000002 -2.6219769000000004 6.81491
60651 13664.16 -2384.6394 -6267.6557999999995 -1628.3393999999998 -1.5952809000000001 -1.2871569999999999 7.3129199
60651 13844.16 -2623.141 -6374.909900000001 -288.6303 -1.0459576 0.099564664 7.5237823
60651 14024.16 -2758.6887 -6231.9772 1062.4332 -0.45511275 1.483521 7.4385791
60651 14204.16 -2785.888 -5844.2981 2371.6497999999997 0.15393319 2.8099563 7.0602986
60651 14384.16 -2703.6252000000004 -5227.0015 3587.4202999999998 0.7571133099999999 4.02639 6.4037044
60651 14564.16 -2515.11 -4404.2935 4661.8161 1.3306227 5.084772500000001 5.4946471
60651 14744.16 -2227.7406 -3408.4849 5552.4785 1.8518797 5.9434003 4.3689461000000005
60651 14924.16 -1852.8028000000002 -2278.698 6224.2807999999995 2.3004105 6.5685264 3.0708528000000004
60651 15104.16 -1405.0194 -1059.3207 6650.686 2.6586158 6.9355624 1.6512441
60651 15284.16 -901.97388 201.72269 6814.7654 2.9124094 7.029919700000001 0.16566568
60651 15464.16 -363.43102000000005 1454.8210000000001 6709.855500000001 3.0517126 6.8475098 -1.3277226
60651 15644.16 189.42169 2650.5961 6339.848900000001 3.0708321 6.3949244 -2.7702507
60651 15824.16 734.79543 3741.7961 5718.9918 2.9687894000000004 5.6894519 -4.1048766
60651 16004.16 1251.1277 4685.2127 4871.7119 2.7492551 4.7581096 -5.278560000000001
60651 16184.16 1717.9752 5443.34 3831.2309 2.4207178 3.6374477 -6.2441501
60651 16364.16 2116.8107999999997 5985.981900000001 2638.6677000000004 1.9960646 2.3717951 -6.9626108
60651 16544.16 2431.7972999999997 6291.509 1341.2913999999998 1.4921737000000002 1.0116677 -7.404780700000001
60651 16724.16 2650.4459 6347.786400000001 -9.3770863 0.92924594 -0.38832475 -7.552757300000001
60651 16904.16 2764.1416 6152.7017000000005 -1359.6827 0.3299631 -1.7718527 -7.4008398
60651 17084.16 2768.4981000000002 5714.2411 -2656.0679 -0.28155218000000004 -3.0834663 -6.9557934999999995
60651 17264.16 2663.5174 5050.1073 -3847.2796000000003 -0.88084238 -4.271042400000001 -6.2363642
60651 17444.16 2453.5574 4186.925700000001 -4886.4574 -1.4441772000000002 -5.287942500000001 -5.2722394
60651 17624.16 2147.0982999999997 3159.0643999999998 -5732.942400000001 -1.9495278 -6.0948602 -4.1025805
60651 17804.16 1756.3815 2007.2287 -6353.8473 -2.3773846 -6.6611424 -2.7741249
60651 17984.16 1296.8752 776.7739 -6725.2339 -2.7114366 -6.9657386 -1.3392378
60651 18164.16 786.65637 -484.06067 -6832.939 -2.9390881 -6.9977324 0.14616406
60651 18344.16 245.70785 -1725.9951 -6673.0301 -3.0518079 -6.7564846 1.6246545000000001
60651 18524.16 -304.83618 -2900.5536 -6251.903 -3.04537 -6.251540200000001 3.0392221
60651 18704.16 -843.4811800000001 -3961.8747000000003 -5586.0325 -2.9200111000000004 -5.5023242 4.3352183
60651 18884.16 -1349.1795 -4868.4393 -4701.372 -2.6804523 -4.5375372 5.4622875
60651 19064.16 -1802.1302 -5584.665900000001 -3632.4118 -2.335797 -3.394279 6.3762371
60651 19244.16 -2184.5474 -6082.317 -2420.9053 -1.8992721 -2.116811 7.0408452
60651 19424.16 -2481.3646000000003 -6341.646900000001 -1114.2898 -1.3877849000000002 -0.7549422100000001 7.4294142
60651 19604.16 -2680.8474 -6352.237700000001 236.14187 -0.82133722 0.63784318 7.5260117
60651 19784.16 -2775.0836 -6113.4672 1577.2729 -0.22223399000000002 2.0065854 7.3263323
60651 19964.16 -2760.3107999999997 -5634.562599999999 2856.2757 0.38587003 3.2971640000000004 6.8379356
60651 20144.16 -2637.0728 -4934.2519 4022.7323 0.9789536900000001 4.458515500000001 6.0799351
60651 20324.16 -2410.196 -4040.0176 5030.650900000001 1.5336184000000002 5.444764500000001 5.0822159000000005
60651 20504.16 -2088.5893 -2986.9889 5840.2907000000005 2.0280499 6.2170955 3.8840854
60651 20684.16 -1684.8823 -1816.5381000000002 6419.7084 2.4428493 6.7451625 2.5325828
60651 20864.16 -1214.9258 -574.6558100000001 6745.9867 2.7617353 7.008146 1.0806362
60651 21044.16 -697.17564 689.83309 6806.1157 2.9721293 6.995468300000001 -0.41494414
60651 21224.16 -151.98407 1927.1506000000002 6597.5072 3.0656169 6.707168 -1.8955271
